[{"OBJECT_NAME":"IONOSFERA-M 2","OBJECT_ID":"2024-199B","EPOCH":"2026-03-09T22:15:30.586176","MEAN_MOTION":14.22737815,"ECCENTRICITY":3.184e-5,"INCLINATION":98.7324,"RA_OF_ASC_NODE":302.9812,"ARG_OF_PERICENTER":122.4874,"MEAN_ANOMALY":237.6335,"EPHEMERIS_TYPE":0,"CLASSIFICATION_TYPE":"U","NORAD_CAT_ID":61736,"ELEMENT_SET_NO":999,"REV_AT_EPOCH":11671,"BSTAR":4.5235484e-5,"MEAN_MOTION_DOT":5.7e-7,"MEAN_MOTION_DDOT":0},{"OBJECT_NAME":"SL-16 DEB","OBJECT_ID":"1992-093DH","EPOCH":"2026-03-09T21:53:29.523264","MEAN_MOTION":14.06269093,"ECCENTRICITY":0.00777191,"INCLINATION":70.9625,"RA_OF_ASC_NODE":350.2851,"ARG_OF_PERICENTER":141.9312,"MEAN_ANOMALY":289.3033,"EPHEMERIS_TYPE":0,"CLASSIFICATION_TYPE":"U","NORAD_CAT_ID":22416,"ELEMENT_SET_NO":999,"REV_AT_EPOCH":70167,"BSTAR":0.00015188674,"MEAN_MOTION_DOT":2.11e-6,"MEAN_MOTION_DDOT":0}]
